NORAD_CAT_ID,OBJECT_NAME,OBJECT_TYPE,EPOCH,MEAN_MOTION,ECCENTRICITY,INCLINATION,RA_OF_ASC_NODE,ARG_OF_PERICENTER,MEAN_ANOMALY,BSTAR,MEAN_MOTION_DOT,MEAN_MOTION_DDOT,TLE_LINE0,TLE_LINE1,TLE_LINE2,SEMIMAJOR_AXIS,PERIOD,APOGEE,PERIGEE,DECAYED
53005.0,STARLINK-4288,PAYLOAD,2022-09-07 22:00:00,15.27883486,0.000152,53.2176,75.2458,61.2838,127.8767,-0.041998,-0.01062202,0.0,0 STARLINK-4288,1 53005U 22076V   22250.91667824 -.01062202  00000-0 -41998-1 0  9991,2 53005  53.2176  75.2458 0001520  61.2838 127.8767 15.27883486  1300,6860.278,94.248,483.185,481.1,0.0
53005.0,STARLINK-4288,PAYLOAD,2022-09-08 14:00:01,15.26365944,0.0001389,53.2177,72.1712,69.0411,187.2361,-0.044077,-0.01064047,0.0,0 STARLINK-4288,1 53005U 22076V   22251.58334491 -.01064047  00000-0 -44077-1 0  9996,2 53005  53.2177  72.1712 0001389  69.0411 187.2361 15.26365944  1309,6864.824000000001,94.342,487.642,485.735,0.0
53005.0,STARLINK-4288,PAYLOAD,2022-09-08 22:00:00,15.25605112,0.0001301,53.2175,70.6389,75.215,213.2511,-0.045004,-0.01061796,0.0,0 STARLINK-4288,1 53005U 22076V   22251.91667824 -.01061796  00000-0 -45004-1 0  9991,2 53005  53.2175  70.6389 0001301  75.2150 213.2511 15.25605112 10415,6867.106,94.389,489.864,488.078,0.0
53005.0,STARLINK-4288,PAYLOAD,2022-09-09 14:00:01,15.24088348,0.0001235,53.2178,67.575,67.9178,282.189,-0.047284,-0.01065372,0.0,0 STARLINK-4288,1 53005U 22076V   22252.58334491 -.01065372  00000-0 -47284-1 0  9992,2 53005  53.2178  67.5750 0001235  67.9178 282.1890 15.24088348  1307,6871.661,94.483,494.375,492.67800000000005,0.0
53005.0,STARLINK-4288,PAYLOAD,2022-09-09 20:00:01,15.23517776,0.0001379,53.2176,66.4299,68.6715,213.6088,-0.048022,-0.01063822,0.0,0 STARLINK-4288,1 53005U 22076V   22252.83334491 -.01063822  00000-0 -48022-1 0  9999,2 53005  53.2176  66.4299 0001379  68.6715 213.6088 15.23517776 10551,6873.377,94.518,496.19,494.294,0.0
53005.0,STARLINK-4288,PAYLOAD,2022-09-09 22:00:00,15.23326625,0.0001291,53.2175,66.048,60.5486,319.0095,-0.048206,-0.0106196,0.0,0 STARLINK-4288,1 53005U 22076V   22252.91667824 -.01061960  00000-0 -48206-1 0  9992,2 53005  53.2175  66.0480 0001291  60.5486 319.0095 15.23326625  1300,6873.9519999999975,94.53,496.704,494.929,0.0
53005.0,STARLINK-4288,PAYLOAD,2022-09-10 14:00:01,15.21809766,0.0001335,53.2176,62.995,63.5113,12.2115,-0.050617,-0.01065548,0.0,0 STARLINK-4288,1 53005U 22076V   22253.58334491 -.01065548  00000-0 -50617-1 0  9992,2 53005  53.2176  62.9950 0001335  63.5113  12.2115 15.21809766 10661,6878.519,94.624,501.302,499.466,0.0
53005.0,STARLINK-4288,PAYLOAD,2022-09-10 22:00:00,15.21046005,0.0001339,53.2174,61.4731,68.0316,34.4054,-0.051399,-0.01058492,0.0,0 STARLINK-4288,1 53005U 22076V   22253.91667824 -.01058492  00000-0 -51399-1 0  9996,2 53005  53.2174  61.4731 0001339  68.0316  34.4054 15.21046005  1307,6880.821,94.672,503.608,501.765,0.0
53005.0,STARLINK-4288,PAYLOAD,2022-09-11 14:00:01,15.1952995,0.0001501999999999,53.2177,58.4308,62.4756,90.6497,-0.054007,-0.01063366,0.0,0 STARLINK-4288,1 53005U 22076V   22254.58334491 -.01063366  00000-0 -54007-1 0  9996,2 53005  53.2177  58.4308 0001502  62.4756  90.6497 15.19529950  1301,6885.397,94.766,508.296,506.228,0.0
53005.0,STARLINK-4288,PAYLOAD,2022-09-11 22:00:00,15.18766341,0.0001528,53.2174,56.9142,60.4048,116.6964,-0.054812,-0.01056101,0.0,0 STARLINK-4288,1 53005U 22076V   22254.91667824 -.01056101  00000-0 -54812-1 0  9995,2 53005  53.2174  56.9142 0001528  60.4048 116.6964 15.18766341  1301,6887.705,94.814,510.622,508.517,0.0
53005.0,STARLINK-4288,PAYLOAD,2022-09-12 12:00:00,15.17440346,0.0001479,53.2177,54.2605,62.9047,63.9571,-0.05726,-0.01074631,0.0,0 STARLINK-4288,1 53005U 22076V   22255.50001157 -.01074631  00000-0 -57260-1 0  9990,2 53005  53.2177  54.2605 0001479  62.9047  63.9571 15.17440346 10963,6891.717,94.897,514.601,512.563,0.0
53005.0,STARLINK-4288,PAYLOAD,2022-09-12 14:00:01,15.17250372,0.0001484,53.2177,53.8828,67.1692,155.1442,-0.057572,-0.01074586,0.0,0 STARLINK-4288,1 53005U 22076V   22255.58334491 -.01074586  00000-0 -57572-1 0  9993,2 53005  53.2177  53.8828 0001484  67.1692 155.1442 15.17250372  1301,6892.292,94.909,515.18,513.134,0.0
53005.0,STARLINK-4288,PAYLOAD,2022-09-12 22:00:00,15.1648884,0.0001453999999999,53.2173,52.3713,64.3228,179.2278,-0.0586059999999999,-0.01070492,0.0,0 STARLINK-4288,1 53005U 22076V   22255.91667824 -.01070492  00000-0 -58606-1 0  9990,2 53005  53.2173  52.3713 0001454  64.3228 179.2278 15.16488840  1301,6894.599,94.956,517.467,515.462,0.0
53005.0,STARLINK-4288,PAYLOAD,2022-09-13 06:00:00,15.15730058,0.0001322,53.2175,50.8586,78.7364,185.1399,-0.059992,-0.01072097,0.0,0 STARLINK-4288,1 53005U 22076V   22256.25001157 -.01072097  00000-0 -59992-1 0  9991,2 53005  53.2175  50.8586 0001322  78.7364 185.1399 15.15730058 11073,6896.9,95.004,519.677,517.8530000000002,0.0
53005.0,STARLINK-4288,PAYLOAD,2022-09-13 14:00:01,15.14971676,0.0001336,53.2176,49.3506,77.1362,206.151,-0.061411,-0.01073835,0.0,0 STARLINK-4288,1 53005U 22076V   22256.58334491 -.01073835  00000-0 -61411-1 0  9997,2 53005  53.2176  49.3506 0001336  77.1362 206.1510 15.14971676  1301,6899.2019999999975,95.051,521.988,520.145,0.0
53005.0,STARLINK-4288,PAYLOAD,2022-09-13 22:00:00,15.14211908,0.0001286999999999,53.2173,47.8442,72.5846,229.2014,-0.062684,-0.01072766,0.0,0 STARLINK-4288,1 53005U 22076V   22256.91667824 -.01072766  00000-0 -62684-1 0  9998,2 53005  53.2173  47.8442 0001287  72.5846 229.2014 15.14211908  1301,6901.509,95.099,524.262,522.486,0.0
53005.0,STARLINK-4288,PAYLOAD,2022-09-14 06:00:00,15.13450679,0.0001220999999999,53.2175,46.337,77.7372,241.6375,-0.063916,-0.01070698,0.0,0 STARLINK-4288,1 53005U 22076V   22257.25001157 -.01070698  00000-0 -63916-1 0  9998,2 53005  53.2175  46.3370 0001221  77.7372 241.6375 15.13450679 11225,6903.823,95.147,526.531,524.845,0.0
53005.0,STARLINK-4288,PAYLOAD,2022-09-14 14:00:01,15.12744826,0.0001245,53.2177,44.8321,86.7455,249.2771,-0.070079,-0.01144627,0.0,0 STARLINK-4288,1 53005U 22076V   22257.58334491 -.01144627  00000-0 -70079-1 0  9996,2 53005  53.2177  44.8321 0001245  86.7455 249.2771 15.12744826  1305,6905.971,95.191,528.695,526.976,0.0
53005.0,STARLINK-4288,PAYLOAD,2022-09-14 22:00:00,15.11972913,0.0001279,53.217,43.3316,67.6523,284.132,-0.0699299999999999,-0.01119754,0.0,0 STARLINK-4288,1 53005U 22076V   22257.91667824 -.01119754  00000-0 -69930-1 0  9999,2 53005  53.2170  43.3316 0001279  67.6523 284.1320 15.11972913  1304,6908.321,95.24,531.069,529.302,0.0
53005.0,STARLINK-4288,PAYLOAD,2022-09-15 06:00:00,15.11184499,0.0001318,53.2175,41.8299,63.33600000000001,303.3175,-0.069301,-0.01088029,0.0,0 STARLINK-4288,1 53005U 22076V   22258.25001157 -.01088029  00000-0 -69301-1 0  9990,2 53005  53.2175  41.8299 0001318  63.3360 303.3175 15.11184499 11372,6910.723000000001,95.289,533.499,531.678,0.0
53005.0,STARLINK-4288,PAYLOAD,2022-09-15 14:00:01,15.10455693,0.0001179,53.2177,40.3319,84.6296,295.9419,-0.073451,-0.01126792,0.0,0 STARLINK-4288,1 53005U 22076V   22258.58334491 -.01126792  00000-0 -73451-1 0  9997,2 53005  53.2177  40.3319 0001179  84.6296 295.9419 15.10455693  1305,6912.946,95.335,535.626,533.996,0.0
53005.0,STARLINK-4288,PAYLOAD,2022-09-15 22:00:00,15.09539361,0.0001284999999999,53.2172,38.8367,92.1215,301.5151,-0.047812,-0.0072183,0.0,0 STARLINK-4288,1 53005U 22076V   22258.91667824 -.00721830  00000-0 -47812-1 0  9998,2 53005  53.2172  38.8367 0001285  92.1215 301.5151 15.09539361  1308,6915.744000000002,95.393,538.497,536.72,0.0
53005.0,STARLINK-4288,PAYLOAD,2022-09-16 08:00:01,15.08902338,0.0001195,53.2169,36.9569,76.5056,62.1154,-0.003675,-0.000584,0.0,0 STARLINK-4288,1 53005U 22076V   22259.33334491 -.00058400  00000-0 -36750-2 0  9992,2 53005  53.2169  36.9569 0001195  76.5056  62.1154 15.08902338 11543,6917.69,95.434,540.382,538.7280000000002,0.0
53005.0,STARLINK-4288,PAYLOAD,2022-09-16 14:00:01,15.0887393,0.0001252,53.2173,35.8385,70.2772,347.0782,-0.0010333,-0.0001671,0.0,0 STARLINK-4288,1 53005U 22076V   22259.58334491 -.00016710  00000-0 -10333-2 0  9996,2 53005  53.2173  35.8385 0001252  70.2772 347.0782 15.08873930  1302,6917.776999999999,95.435,540.508,538.776,0.0
53005.0,STARLINK-4288,PAYLOAD,2022-09-16 22:00:00,15.08885938,0.0001273,53.2164,34.3369,58.2304,10.764,-0.0014229,-0.0002289,0.0,0 STARLINK-4288,1 53005U 22076V   22259.91667824 -.00022890  00000-0 -14229-2 0  9996,2 53005  53.2164  34.3369 0001273  58.2304  10.7640 15.08885938 11622,6917.74,95.435,540.486,538.724,0.0
53005.0,STARLINK-4288,PAYLOAD,2022-09-17 14:00:01,15.08796538,0.0001643,53.2167,31.3437,69.7683,22.4657,-0.0019706,-0.00031476,0.0,0 STARLINK-4288,1 53005U 22076V   22260.58334491 -.00031476  00000-0 -19706-2 0  9997,2 53005  53.2167  31.3437 0001643  69.7683  22.4657 15.08796538 11722,6918.013000000001,95.44,541.015,538.742,0.0
53005.0,STARLINK-4288,PAYLOAD,2022-09-17 22:00:00,15.08791403,0.0001628,53.2167,29.8478,63.8272,39.9255,0.0026966,0.00042832,0.0,0 STARLINK-4288,1 53005U 22076V   22260.91667824  .00042832  00000-0  26966-2 0  9995,2 53005  53.2167  29.8478 0001628  63.8272  39.9255 15.08791403  1307,6918.029,95.441,541.02,538.768,0.0
53005.0,STARLINK-4288,PAYLOAD,2022-09-18 06:00:00,15.08801573,0.0001503,53.217,28.3498,71.2607,44.0568,0.0031429,0.00050034,0.0,0 STARLINK-4288,1 53005U 22076V   22261.25001157  .00050034  00000-0  31429-2 0  9997,2 53005  53.2170  28.3498 0001503  71.2607  44.0568 15.08801573 11837,6917.998000000001,95.44,540.903,538.823,0.0
53005.0,STARLINK-4288,PAYLOAD,2022-09-18 14:00:01,15.08844972,0.0001631999999999,53.2171,26.8548,66.2901,60.6654,-0.00081533,-0.00013242,0.0,0 STARLINK-4288,1 53005U 22076V   22261.58335648 -.00013242  00000-0 -81533-3 0  9992,2 53005  53.2171  26.8548 0001632  66.2901  60.6654 15.08844972  1302,6917.865,95.437,540.859,538.601,0.0
